[{"OBJECT_NAME":"STARLINK-6342","OBJECT_ID":"2023-078D","EPOCH":"2026-03-09T22:24:55.514304","MEAN_MOTION":14.98338533,"ECCENTRICITY":0.00023541,"INCLINATION":70.002,"RA_OF_ASC_NODE":3.8447,"ARG_OF_PERICENTER":253.487,"MEAN_ANOMALY":106.603,"EPHEMERIS_TYPE":0,"CLASSIFICATION_TYPE":"U","NORAD_CAT_ID":56770,"ELEMENT_SET_NO":999,"REV_AT_EPOCH":15222,"BSTAR":2.8956148e-5,"MEAN_MOTION_DOT":2.53e-6,"MEAN_MOTION_DDOT":0},{"OBJECT_NAME":"ELECTRON KICK STAGE R\/B","OBJECT_ID":"2022-079C","EPOCH":"2026-03-09T00:14:21.573024","MEAN_MOTION":14.9984674,"ECCENTRICITY":0.00071286,"INCLINATION":40.0139,"RA_OF_ASC_NODE":71.1393,"ARG_OF_PERICENTER":266.8926,"MEAN_ANOMALY":93.1051,"EPHEMERIS_TYPE":0,"CLASSIFICATION_TYPE":"U","NORAD_CAT_ID":53104,"ELEMENT_SET_NO":999,"REV_AT_EPOCH":10032,"BSTAR":0.00071833394,"MEAN_MOTION_DOT":8.922e-5,"MEAN_MOTION_DDOT":0}]
